SARSAT 7 (NOAA 15)      
1 25338U 98030A   16033.49486604  .00000091  00000-0  57353-4 0  9992
2 25338  98.7815  37.3860 0009976 215.5607 144.4908 14.25699268921650
GPS BIIR-07             
1 26690U 01004A   16033.55254529  .00000043  00000-0  00000+0 0  9994
2 26690  53.0008 178.7472 0168058 250.4936 128.7256  2.00564603109977
METEOSAT-8 (MSG-1)      
1 27509U 02040B   16033.11250765  .00000017  00000-0  00000+0 0  9996
2 27509   3.9604  60.2711 0001904 223.7070 251.9087  1.00267882 49266
GPS BIIR-08             
1 27663U 03005A   16032.67377471 -.00000057  00000-0  00000+0 0  9998
2 27663  56.7741   4.3980 0084270  16.9049 182.4988  2.00561176 95316
INSAT 3A                
1 27714U 03013A   16033.55038631 -.00000258  00000-0  00000+0 0  9997
2 27714   0.1025 265.8934 0002959 147.6708  10.2593  1.00271551 46974
GPS BIIR-11             
1 28190U 04009A   16033.28063522 -.00000028  00000-0  00000+0 0  9994
2 28190  55.7066  65.7991 0111105  37.7350  41.0867  2.00386512 87000
GPS BIIR-12             
1 28361U 04023A   16033.19464571  .00000073  00000-0  00000+0 0  9998
2 28361  54.2426 240.4017 0105647 211.2356  67.6602  2.00556345 85084
GPS BIIR-13             
1 28474U 04045A   16033.39552087 -.00000036  00000-0  00000+0 0  9999
2 28474  53.9951 118.2985 0155550 235.9513 191.3196  2.00558488 82451
SARSAT 10 (NOAA 18)     
1 28654U 05018A   16033.53298708  .00000041  00000-0  47743-4 0  9998
2 28654  99.1964  36.9442 0014854  38.2270 321.9951 14.12264738551589
GPS BIIR-14M            
1 28874U 05038A   16033.30695192 -.00000027  00000-0  00000+0 0  9992
2 28874  55.8742  62.9879 0111676 248.3239 222.2196  2.00568690 75851
MSG-2                   
1 28912U 05049B   16033.15908845  .00000061  00000-0  00000+0 0  9999
2 28912   1.2428  65.9146 0003281 245.2621 247.1737  1.00268935 37092
GOES 13                 
1 29155U 06018A   16032.84204415 -.00000251  00000-0  00000+0 0  9995
2 29155   0.3036  96.4134 0002848 305.2226 318.3660  1.00268274 35538
SARSAT 11 (METOP-A)     
1 29499U 06044A   16033.19985355  .00000026  00000-0  31811-4 0  9991
2 29499  98.7156  94.0581 0001709 141.8091 286.3664 14.21491223481961
GPS BIIR-16M            
1 29601U 06052A   16033.20307780 -.00000057  00000-0  00000+0 0  9993
2 29601  56.7442   3.3030 0056590  36.1821 324.2037  2.00550610 67488
GPS BIIR-17M            
1 32260U 07047A   16033.03037006  .00000073  00000-0  00000+0 0  9992
2 32260  53.3723 237.1979 0079396  25.8504 334.5887  2.00549346 60865
GPS BIIR-18M            
1 32384U 07062A   16033.46828644 -.00000025  00000-0  00000+0 0  9997
2 32384  55.9276  63.5319 0011664 317.3191 136.2443  2.00570070 59600
SARSAT 12 (NOAA 19)     
1 33591U 09005A   16033.53663001  .00000140  00000-0  10108-3 0  9990
2 33591  99.0225 349.3300 0013079 239.5582 120.4297 14.12034860359995
GOES 14                 
1 35491U 09033A   16032.92520728 -.00000092  00000-0  00000+0 0  9995
2 35491   0.0424 243.6742 0004746 353.0534 123.2073  1.00271535 24172
GOES 15                 
1 36411U 10008A   16033.01000002  .00000089  00000-0  00000+0 0  9996
2 36411   0.0942 253.9958 0001734 357.8420 108.1236  1.00268241 21702
ELEKTRO-L 1             
1 37344U 11001A   16032.76767152 -.00000099  00000-0  00000+0 0  9995
2 37344   1.4353  79.9384 0004373 154.1274 249.6370  1.00272842 18488
GLONASS-K 1             
1 37372U 11009A   16033.19682947 -.00000009  00000-0  00000+0 0  9991
2 37372  65.1642  81.6043 0009005 238.1299 172.5686  2.13102927 38371
GPS BIIF-2              
1 37753U 11036A   16033.53529466 -.00000033  00000-0  00000+0 0  9995
2 37753  55.2141 120.7581 0049066  24.6159 266.7403  2.00565842 33300
LUCH 5A                 
1 37951U 11074B   16033.25189035 -.00000045  00000-0  00000+0 0  9993
2 37951   1.8923 223.3235 0002900  90.6990  75.4858  1.00273657 15200
MSG-3                   
1 38552U 12035B   16032.63491655 -.00000003  00000-0  00000+0 0  9998
2 38552   0.5133  87.1900 0001074 206.9736  65.8054  1.00278961 13238
SARSAT 13 (METOP-B)     
1 38771U 12049A   16033.16961008  .00000023  00000-0  30539-4 0  9995
2 38771  98.6665  94.3635 0000549 134.7133 307.4248 14.21518561175092
GPS BIIF-3              
1 38833U 12053A   16033.12063812 -.00000043  00000-0  00000+0 0  9999
2 38833  54.4760 299.2049 0041258  17.2291 342.9596  2.00567900 24373
GSAT0103 (GALILEO-FM3)  
1 38857U 12055A   16032.14042921  .00000074  00000-0  00000+0 0  9999
2 38857  54.9536 205.9516 0002202 187.2378 172.7487  1.70473794 20577
GSAT0104 (GALILEO-FM4)  
1 38858U 12055B   16030.90175611  .00000068  00000-0  00000+0 0  9998
2 38858  54.9545 205.9847 0001697 160.2673 199.7255  1.70473893 20494
GPS BIIF-4              
1 39166U 13023A   16032.97991513 -.00000030  00000-0  00000+0 0  9993
2 39166  55.5842  60.1798 0030917   7.5554 352.5496  2.00568708 19890
INSAT-3D                
1 39216U 13038B   16032.40794032 -.00000157  00000-0  00000+0 0  9990
2 39216   0.0865 260.0599 0001389  61.2491  38.6607  1.00271374  9315
GPS BIIF-5              
1 39533U 14008A   16032.97849102 -.00000052  00000-0  00000+0 0  9995
2 39533  54.6295 304.4226 0016606 182.2047 177.8317  2.00567159 14262
LUCH 5V                 
1 39727U 14023A   16033.56406337 -.00000266  00000-0  00000+0 0  9999
2 39727   3.6530 300.3325 0003508  20.7233 108.9297  1.00273882524543
GPS BIIF-6              
1 39741U 14026A   16033.25483390 -.00000034  00000-0  00000+0 0  9991
2 39741  55.2053 120.2850 0004839 250.2953 109.6796  2.00568741 12547
GPS BIIF-7              
1 40105U 14045A   16033.34904336  .00000077  00000-0  00000+0 0  9992
2 40105  54.7604 240.0342 0004154 118.9189 241.1723  2.00566789 10996
GSAT0201                
1 40128U 14050A   16031.16531890 -.00000072  00000-0  00000-0 0  9999
2 40128  49.9896  65.3966 1579719  45.5609 326.4265  1.85520440  8033
GSAT0202                
1 40129U 14050B   16032.51266395 -.00000062  00000-0  00000+0 0  9993
2 40129  50.0478  64.3203 1579932  46.7521 325.4975  1.85521030 10169
GPS BIIF-8              
1 40294U 14068A   16033.21572254  .00000052  00000-0  00000+0 0  9995
2 40294  54.9638 180.4196 0003484 211.6980 148.2555  2.00551599  9219
GLONASS-K 2             
1 40315U 14075A   16033.20199338 -.00000054  00000-0  00000+0 0  9997
2 40315  64.6807 322.8468 0017560 241.0141 295.9846  2.13101399  9136
GPS BIIF-9              
1 40534U 15013A   16033.35624731 -.00000063  00000-0  00000+0 0  9999
2 40534  55.0447   0.0598 0008574 335.4100  24.5536  2.00560343  6289
GSAT0203                
1 40544U 15017A   16031.88117334 -.00000032  00000-0  00000+0 0  9992
2 40544  55.2425  86.1793 0004641 234.7944 125.2275  1.70475865  5253
GSAT0204                
1 40545U 15017B   16033.42447331 -.00000026  00000-0  00000+0 0  9991
2 40545  55.2502  86.1442 0002892 211.0935 148.9569  1.70476027  5298
GPS BIIF-10             
1 40730U 15033A   16033.01678439 -.00000031  00000-0  00000+0 0  9991
2 40730  55.1209  60.0765 0020074 277.6691  82.1607  2.00567535  4037
GSAT 0205               
1 40889U 15045A   16033.07170190 -.00000062  00000-0  00000+0 0  9990
2 40889  57.3371 325.7392 0004807 338.5780  21.4021  1.70474012  2436
GSAT 0206               
1 40890U 15045B   16030.94537008 -.00000067  00000-0  00000+0 0  9995
2 40890  57.3344 325.7955 0003496 323.7636  36.2207  1.70473883  2426
